REAL                    
1 64875U 25154G   26068.72233414  .00022901  00000+0  82904-3 0  9994
2 64875  97.4133 137.2581 0001853 118.5876 241.5550 15.28408058 34830
STARLINK-36083          
1 66857U 25281K   26068.17580273  .00035151  00000+0  12797-2 0  9997
2 66857  43.0038 346.6606 0001277 277.8070  82.2637 15.27607923 16109
